CCSDS_OMM_VERS = 2.0
CREATION_DATE  = 
ORIGINATOR     = 

OBJECT_NAME    = SL-3 R/B
OBJECT_ID      = 1982-079B
CENTER_NAME    = EARTH
REF_FRAME      = TEME
TIME_SYSTEM    = UTC
MEAN_ELEMENT_THEORY = SGP/SGP4

EPOCH          = 2026-02-03T11:18:39.689280
MEAN_MOTION    = 15.24302145
ECCENTRICITY   = .0024242
INCLINATION    = 81.1435
RA_OF_ASC_NODE = 233.4702
ARG_OF_PERICENTER = 282.8463
MEAN_ANOMALY   = 77.0062

EPHEMERIS_TYPE = 0
CLASSIFICATION_TYPE = U
NORAD_CAT_ID   = 13403
ELEMENT_SET_NO = 999
REV_AT_EPOCH   = 37248
BSTAR          = .22199E-3
MEAN_MOTION_DOT = .5494E-4
MEAN_MOTION_DDOT = 0

CCSDS_OMM_VERS = 2.0
CREATION_DATE  = 
ORIGINATOR     = 

OBJECT_NAME    = SL-14 R/B
OBJECT_ID      = 1982-092B
CENTER_NAME    = EARTH
REF_FRAME      = TEME
TIME_SYSTEM    = UTC
MEAN_ELEMENT_THEORY = SGP/SGP4

EPOCH          = 2026-02-03T10:50:26.772864
MEAN_MOTION    = 14.86625960
ECCENTRICITY   = .0021617
INCLINATION    = 82.5697
RA_OF_ASC_NODE = 173.4132
ARG_OF_PERICENTER = 57.2821
MEAN_ANOMALY   = 4.9955

EPHEMERIS_TYPE = 0
CLASSIFICATION_TYPE = U
NORAD_CAT_ID   = 13553
ELEMENT_SET_NO = 999
REV_AT_EPOCH   = 32384
BSTAR          = .69398E-4
MEAN_MOTION_DOT = .643E-5
MEAN_MOTION_DDOT = 0

CCSDS_OMM_VERS = 2.0
CREATION_DATE  = 
ORIGINATOR     = 

OBJECT_NAME    = SL-3 R/B
OBJECT_ID      = 1983-010B
CENTER_NAME    = EARTH
REF_FRAME      = TEME
TIME_SYSTEM    = UTC
MEAN_ELEMENT_THEORY = SGP/SGP4

EPOCH          = 2026-02-03T12:22:51.851424
MEAN_MOTION    = 15.45145141
ECCENTRICITY   = .0017532
INCLINATION    = 81.1014
RA_OF_ASC_NODE = 44.1085
ARG_OF_PERICENTER = 160.5521
MEAN_ANOMALY   = 199.6396

EPHEMERIS_TYPE = 0
CLASSIFICATION_TYPE = U
NORAD_CAT_ID   = 13819
ELEMENT_SET_NO = 999
REV_AT_EPOCH   = 35266
BSTAR          = .30772E-3
MEAN_MOTION_DOT = .147E-3
MEAN_MOTION_DDOT = 0

CCSDS_OMM_VERS = 2.0
CREATION_DATE  = 
ORIGINATOR     = 

OBJECT_NAME    = SL-3 R/B
OBJECT_ID      = 1983-075B
CENTER_NAME    = EARTH
REF_FRAME      = TEME
TIME_SYSTEM    = UTC
MEAN_ELEMENT_THEORY = SGP/SGP4

EPOCH          = 2026-02-03T11:08:05.787168
MEAN_MOTION    = 15.37512034
ECCENTRICITY   = .0021901
INCLINATION    = 97.6122
RA_OF_ASC_NODE = 37.7749
ARG_OF_PERICENTER = 357.9340
MEAN_ANOMALY   = 2.1809

EPHEMERIS_TYPE = 0
CLASSIFICATION_TYPE = U
NORAD_CAT_ID   = 14208
ELEMENT_SET_NO = 999
REV_AT_EPOCH   = 32489
BSTAR          = .3562E-3
MEAN_MOTION_DOT = .13131E-3
MEAN_MOTION_DDOT = 0

CCSDS_OMM_VERS = 2.0
CREATION_DATE  = 
ORIGINATOR     = 

OBJECT_NAME    = COSMOS 1536
OBJECT_ID      = 1984-013A
CENTER_NAME    = EARTH
REF_FRAME      = TEME
TIME_SYSTEM    = UTC
MEAN_ELEMENT_THEORY = SGP/SGP4

EPOCH          = 2026-02-03T07:19:44.502816
MEAN_MOTION    = 15.23351625
ECCENTRICITY   = .0015253
INCLINATION    = 82.5478
RA_OF_ASC_NODE = 142.0083
ARG_OF_PERICENTER = 47.9462
MEAN_ANOMALY   = 312.3069

EPHEMERIS_TYPE = 0
CLASSIFICATION_TYPE = U
NORAD_CAT_ID   = 14699
ELEMENT_SET_NO = 999
REV_AT_EPOCH   = 26738
BSTAR          = .34677E-3
MEAN_MOTION_DOT = .8297E-4
MEAN_MOTION_DDOT = 0

CCSDS_OMM_VERS = 2.0
CREATION_DATE  = 
ORIGINATOR     = 

OBJECT_NAME    = SL-14 R/B
OBJECT_ID      = 1984-027B
CENTER_NAME    = EARTH
REF_FRAME      = TEME
TIME_SYSTEM    = UTC
MEAN_ELEMENT_THEORY = SGP/SGP4

EPOCH          = 2026-02-03T08:24:56.934144
MEAN_MOTION    = 14.85941923
ECCENTRICITY   = .0019549
INCLINATION    = 82.5408
RA_OF_ASC_NODE = 277.2248
ARG_OF_PERICENTER = 87.3646
MEAN_ANOMALY   = 272.9808

EPHEMERIS_TYPE = 0
CLASSIFICATION_TYPE = U
NORAD_CAT_ID   = 14820
ELEMENT_SET_NO = 999
REV_AT_EPOCH   = 24253
BSTAR          = .55818E-4
MEAN_MOTION_DOT = .513E-5
MEAN_MOTION_DDOT = 0

CCSDS_OMM_VERS = 2.0
CREATION_DATE  = 
ORIGINATOR     = 

OBJECT_NAME    = SL-8 R/B
OBJECT_ID      = 1985-006B
CENTER_NAME    = EARTH
REF_FRAME      = TEME
TIME_SYSTEM    = UTC
MEAN_ELEMENT_THEORY = SGP/SGP4

EPOCH          = 2026-02-03T07:16:49.135872
MEAN_MOTION    = 14.37764769
ECCENTRICITY   = .0019608
INCLINATION    = 74.0475
RA_OF_ASC_NODE = 324.4204
ARG_OF_PERICENTER = 248.6569
MEAN_ANOMALY   = 265.0970

EPHEMERIS_TYPE = 0
CLASSIFICATION_TYPE = U
NORAD_CAT_ID   = 15483
ELEMENT_SET_NO = 999
REV_AT_EPOCH   = 14908
BSTAR          = .10604E-3
MEAN_MOTION_DOT = .293E-5
MEAN_MOTION_DDOT = 0

CCSDS_OMM_VERS = 2.0
CREATION_DATE  = 
ORIGINATOR     = 

OBJECT_NAME    = SL-12 R/B(2)
OBJECT_ID      = 1985-042D
CENTER_NAME    = EARTH
REF_FRAME      = TEME
TIME_SYSTEM    = UTC
MEAN_ELEMENT_THEORY = SGP/SGP4

EPOCH          = 2026-02-03T12:11:27.180672
MEAN_MOTION    = 14.21971951
ECCENTRICITY   = .0035268
INCLINATION    = 71.1083
RA_OF_ASC_NODE = 159.9427
ARG_OF_PERICENTER = 182.5646
MEAN_ANOMALY   = 248.4146

EPHEMERIS_TYPE = 0
CLASSIFICATION_TYPE = U
NORAD_CAT_ID   = 15772
ELEMENT_SET_NO = 999
REV_AT_EPOCH   = 10953
BSTAR          = .59511E-4
MEAN_MOTION_DOT = .85E-6
MEAN_MOTION_DDOT = 0

CCSDS_OMM_VERS = 2.0
CREATION_DATE  = 
ORIGINATOR     = 

OBJECT_NAME    = SL-14 R/B
OBJECT_ID      = 1985-069B
CENTER_NAME    = EARTH
REF_FRAME      = TEME
TIME_SYSTEM    = UTC
MEAN_ELEMENT_THEORY = SGP/SGP4

EPOCH          = 2026-02-03T11:31:52.850784
MEAN_MOTION    = 14.86391777
ECCENTRICITY   = .0017531
INCLINATION    = 82.5239
RA_OF_ASC_NODE = 57.1090
ARG_OF_PERICENTER = 308.9484
MEAN_ANOMALY   = 51.0169

EPHEMERIS_TYPE = 0
CLASSIFICATION_TYPE = U
NORAD_CAT_ID   = 15945
ELEMENT_SET_NO = 999
REV_AT_EPOCH   = 16775
BSTAR          = .58167E-4
MEAN_MOTION_DOT = .538E-5
MEAN_MOTION_DDOT = 0

CCSDS_OMM_VERS = 2.0
CREATION_DATE  = 
ORIGINATOR     = 

OBJECT_NAME    = SL-16 R/B
OBJECT_ID      = 1985-097B
CENTER_NAME    = EARTH
REF_FRAME      = TEME
TIME_SYSTEM    = UTC
MEAN_ELEMENT_THEORY = SGP/SGP4

EPOCH          = 2026-02-03T12:39:02.844864
MEAN_MOTION    = 14.16595301
ECCENTRICITY   = .0009373
INCLINATION    = 71.0012
RA_OF_ASC_NODE = 212.4716
ARG_OF_PERICENTER = 299.8218
MEAN_ANOMALY   = 119.0705

EPHEMERIS_TYPE = 0
CLASSIFICATION_TYPE = U
NORAD_CAT_ID   = 16182
ELEMENT_SET_NO = 999
REV_AT_EPOCH   = 8239
BSTAR          = .11244E-3
MEAN_MOTION_DOT = .176E-5
MEAN_MOTION_DDOT = 0

CCSDS_OMM_VERS = 2.0
CREATION_DATE  = 
ORIGINATOR     = 

OBJECT_NAME    = SL-14 R/B
OBJECT_ID      = 1986-006B
CENTER_NAME    = EARTH
REF_FRAME      = TEME
TIME_SYSTEM    = UTC
MEAN_ELEMENT_THEORY = SGP/SGP4

EPOCH          = 2026-02-03T11:11:46.511520
MEAN_MOTION    = 14.86765260
ECCENTRICITY   = .0077404
INCLINATION    = 82.5277
RA_OF_ASC_NODE = 291.9476
ARG_OF_PERICENTER = 27.2168
MEAN_ANOMALY   = 333.3072

EPHEMERIS_TYPE = 0
CLASSIFICATION_TYPE = U
NORAD_CAT_ID   = 16496
ELEMENT_SET_NO = 999
REV_AT_EPOCH   = 14412
BSTAR          = .8932E-4
MEAN_MOTION_DOT = .867E-5
MEAN_MOTION_DDOT = 0

CCSDS_OMM_VERS = 2.0
CREATION_DATE  = 
ORIGINATOR     = 

OBJECT_NAME    = COSMOS 1743
OBJECT_ID      = 1986-034A
CENTER_NAME    = EARTH
REF_FRAME      = TEME
TIME_SYSTEM    = UTC
MEAN_ELEMENT_THEORY = SGP/SGP4

EPOCH          = 2026-02-03T10:58:21.614304
MEAN_MOTION    = 15.56047386
ECCENTRICITY   = .0005301
INCLINATION    = 82.5337
RA_OF_ASC_NODE = 109.6860
ARG_OF_PERICENTER = 66.4193
MEAN_ANOMALY   = 293.7617

EPHEMERIS_TYPE = 0
CLASSIFICATION_TYPE = U
NORAD_CAT_ID   = 16719
ELEMENT_SET_NO = 999
REV_AT_EPOCH   = 17492
BSTAR          = .51893E-3
MEAN_MOTION_DOT = .363E-3
MEAN_MOTION_DDOT = 0

